NORAD_CAT_ID,OBJECT_NAME,OBJECT_TYPE,EPOCH,MEAN_MOTION,ECCENTRICITY,INCLINATION,RA_OF_ASC_NODE,ARG_OF_PERICENTER,MEAN_ANOMALY,BSTAR,MEAN_MOTION_DOT,MEAN_MOTION_DDOT,TLE_LINE0,TLE_LINE1,TLE_LINE2,SEMIMAJOR_AXIS,PERIOD,APOGEE,PERIGEE,DECAYED
53034.0,STARLINK-4151,PAYLOAD,2023-03-28 15:09:07,15.08849105,0.0001414,53.2182,229.2233,112.0007,248.1135,0.00011217,1.498e-05,0.0,0 STARLINK-4151,1 53034U 22076BA  23087.63134228  .00001498  00000-0  11217-3 0  9998,2 53034  53.2182 229.2233 0001414 112.0007 248.1135 15.08849105 40988,6917.853,95.437,540.696,538.739,0.0
53034.0,STARLINK-4151,PAYLOAD,2023-03-28 18:19:53,15.08854876,0.0001374,53.2184,228.629,111.9756,248.1382,0.0002342,3.443e-05,0.0,0 STARLINK-4151,1 53034U 22076BA  23087.76381941  .00003443  00000-0  23420-3 0  9999,2 53034  53.2184 228.6290 0001374 111.9756 248.1382 15.08854876 40547,6917.835,95.437,540.65,538.749,0.0
53034.0,STARLINK-4151,PAYLOAD,2023-03-29 08:38:22,15.08852607,0.0001845,53.2171,225.9536,89.0933,271.0271,6.9512e-05,8.19e-06,0.0,0 STARLINK-4151,1 53034U 22076BA  23088.35997883  .00000819  00000-0  69512-4 0  9990,2 53034  53.2171 225.9536 0001845  89.0933 271.0271 15.08852607 40633,6917.842,95.437,540.983,538.431,0.0
53034.0,STARLINK-4151,PAYLOAD,2023-03-29 16:35:17,15.08848628,0.0001352,53.2181,224.4652,86.0762,274.0385,7.8179e-05,9.57e-06,0.0,0 STARLINK-4151,1 53034U 22076BA  23088.69118005  .00000957  00000-0  78179-4 0  9990,2 53034  53.2181 224.4652 0001352  86.0762 274.0385 15.08848628 41141,6917.854,95.437,540.654,538.784,0.0
53034.0,STARLINK-4151,PAYLOAD,2023-03-30 10:04:33,15.08836955,0.0001221,53.2178,221.1947,92.8314,267.2818,7.5458e-06,-1.68e-06,0.0,0 STARLINK-4151,1 53034U 22076BA  23089.41982652 -.00000168  00000-0  75458-5 0  9991,2 53034  53.2178 221.1947 0001221  92.8314 267.2818 15.08836955 41258,6917.89,95.438,540.599,538.91,0.0
53034.0,STARLINK-4151,PAYLOAD,2023-03-30 14:50:42,15.08843785,0.000154,53.2174,220.301,107.0659,253.0502,2.382e-05,9.1e-07,0.0,0 STARLINK-4151,1 53034U 22076BA  23089.61854312  .00000091  00000-0  23820-4 0  9993,2 53034  53.2174 220.3010 0001540 107.0659 253.0502 15.08843785 41286,6917.869,95.437,540.799,538.668,0.0
53034.0,STARLINK-4151,PAYLOAD,2023-04-01 01:49:11,15.08845453,0.0002002,53.2142,213.7657,53.4406,306.677,0.00038869,5.904e-05,0.0,0 STARLINK-4151,1 53034U 22076BA  23091.07582637  .00005904  00000-0  38869-3 0  9990,2 53034  53.2142 213.7657 0002002  53.4406 306.6770 15.08845453 41503,6917.864,95.437,541.114,538.344,0.0
53034.0,STARLINK-4151,PAYLOAD,2023-04-01 12:56:53,15.08826003,0.0001506,53.2157,211.6784,83.7976,276.3188,-0.00016958,-2.985e-05,0.0,0 STARLINK-4151,1 53034U 22076BA  23091.53951248 -.00002985  00000-0 -16958-3 0  9992,2 53034  53.2157 211.6784 0001506  83.7976 276.3188 15.08826003 41116,6917.923,95.438,540.83,538.746,0.0
53034.0,STARLINK-4151,PAYLOAD,2023-04-01 14:32:17,15.08830358,0.0001543,53.2162,211.38,92.9665,267.1504,-4.3697e-05,-9.83e-06,0.0,0 STARLINK-4151,1 53034U 22076BA  23091.60575246 -.00000983  00000-0 -43697-4 0  9997,2 53034  53.2162 211.3800 0001543  92.9665 267.1504 15.08830358 41585,6917.91,95.438,540.842,538.707,0.0
53034.0,STARLINK-4151,PAYLOAD,2023-04-01 17:43:03,15.0883327,0.0001576,53.2166,210.7825,112.0365,248.0795,4.857e-05,4.85e-06,0.0,0 STARLINK-4151,1 53034U 22076BA  23091.73823030  .00000485  00000-0  48570-4 0  9998,2 53034  53.2166 210.7825 0001576 112.0365 248.0795 15.08833270 41144,6917.901,95.438,540.856,538.676,0.0
53034.0,STARLINK-4151,PAYLOAD,2023-04-02 14:23:03,15.08851403,0.0001415,53.2164,206.9205,90.6941,269.4213,0.00052567,8.091e-05,0.0,0 STARLINK-4151,1 53034U 22076BA  23092.59934763  .00008091  00000-0  52567-3 0  9990,2 53034  53.2164 206.9205 0001415  90.6941 269.4213 15.08851403 41739,6917.846,95.437,540.689,538.732,0.0
53034.0,STARLINK-4151,PAYLOAD,2023-04-03 06:16:55,15.08840542,0.0001319,53.2169,203.9461,91.1568,268.9575,0.00013547,1.869e-05,0.0,0 STARLINK-4151,1 53034U 22076BA  23093.26175306  .00001869  00000-0  13547-3 0  9996,2 53034  53.2169 203.9461 0001319  91.1568 268.9575 15.08840542 41837,6917.879,95.438,540.656,538.831,0.0
53034.0,STARLINK-4151,PAYLOAD,2023-04-03 11:03:04,15.08841364,0.000161,53.2168,203.0538,106.8838,253.233,6.7724e-05,7.9e-06,0.0,0 STARLINK-4151,1 53034U 22076BA  23093.46047240  .00000790  00000-0  67724-4 0  9992,2 53034  53.2168 203.0538 0001610 106.8838 253.2330 15.08841364 41402,6917.876,95.437,540.855,538.627,0.0
53034.0,STARLINK-4151,PAYLOAD,2023-04-04 10:53:51,15.08849058,0.0001363,53.2172,198.5948,98.1564,261.9583,0.00040205,6.118e-05,0.0,0 STARLINK-4151,1 53034U 22076BA  23094.45407058  .00006118  00000-0  40205-3 0  9993,2 53034  53.2172 198.5948 0001363  98.1564 261.9583 15.08849058 42016,6917.853,95.437,540.661,538.775,0.0
53034.0,STARLINK-4151,PAYLOAD,2023-04-05 05:58:29,15.08846621,0.0001345,53.2174,195.027,97.4198,262.6947,0.00016248,2.299e-05,0.0,0 STARLINK-4151,1 53034U 22076BA  23095.24894887  .00002299  00000-0  16248-3 0  9997,2 53034  53.2174 195.0270 0001345  97.4198 262.6947 15.08846621 42131,6917.86,95.437,540.656,538.795,0.0
53034.0,STARLINK-4151,PAYLOAD,2023-04-05 13:55:25,15.08838102,0.0001244,53.2173,193.5396,85.7752,274.3382,4.9165e-05,4.95e-06,0.0,0 STARLINK-4151,1 53034U 22076BA  23095.58015375  .00000495  00000-0  49165-4 0  9992,2 53034  53.2173 193.5396 0001244  85.7752 274.3382 15.08838102 41728,6917.886,95.438,540.612,538.891,0.0
53034.0,STARLINK-4151,PAYLOAD,2023-04-06 12:10:48,15.08843154,0.0001295,53.2172,189.3768,92.7223,267.3917,4.6991e-05,4.6e-06,0.0,0 STARLINK-4151,1 53034U 22076BA  23096.50751141  .00000460  00000-0  46991-4 0  9999,2 53034  53.2172 189.3768 0001295  92.7223 267.3917 15.08843154 41864,6917.871,95.437,540.632,538.84,0.0
53034.0,STARLINK-4151,PAYLOAD,2023-04-07 05:40:04,15.08833145,0.0001441,53.2172,186.1078,78.1862,281.9291,0.00030232,4.526e-05,0.0,0 STARLINK-4151,1 53034U 22076BA  23097.23615776  .00004526  00000-0  30232-3 0  9990,2 53034  53.2172 186.1078 0001441  78.1862 281.9291 15.08833145 42433,6917.901,95.438,540.763,538.769,0.0
53034.0,STARLINK-4151,PAYLOAD,2023-04-07 12:01:35,15.08866121,0.0001227,53.2169,184.9176,78.8197,281.2933,-0.00065135,-0.00010646,0.0,0 STARLINK-4151,1 53034U 22076BA  23097.50109973 -.00010646  00000-0 -65135-3 0  9999,2 53034  53.2169 184.9176 0001227  78.8197 281.2933 15.08866121 42474,6917.801,95.436,540.514,538.817,0.0
53034.0,STARLINK-4151,PAYLOAD,2023-04-07 15:12:22,15.08845631,0.0001593,53.2176,184.3217,85.7376,274.3799,0.00021538,3.142e-05,0.0,0 STARLINK-4151,1 53034U 22076BA  23097.63359363  .00003142  00000-0  21538-3 0  9993,2 53034  53.2176 184.3217 0001593  85.7376 274.3799 15.08845631 42492,6917.863,95.437,540.83,538.626,0.0
53034.0,STARLINK-4151,PAYLOAD,2023-04-08 05:30:50,15.08840424,0.000167,53.2165,181.6467,79.3001,280.8179,6.1002e-05,6.83e-06,0.0,0 STARLINK-4151,1 53034U 22076BA  23098.22975586  .00000683  00000-0  61002-4 0  9998,2 53034  53.2165 181.6467 0001670  79.3001 280.8179 15.08840424 42586,6917.879,95.438,540.899,538.589,0.0
53034.0,STARLINK-4151,PAYLOAD,2023-04-08 11:52:23,15.08841505,0.000156,53.2175,180.4574,80.2401,279.8767,6.1011e-05,6.83e-06,0.0,0 STARLINK-4151,1 53034U 22076BA  23098.49471550  .00000683  00000-0  61011-4 0  9999,2 53034  53.2175 180.4574 0001560  80.2401 279.8767 15.08841505 42162,6917.876,95.437,540.82,538.662,0.0
53034.0,STARLINK-4151,PAYLOAD,2023-04-09 10:07:47,15.08832451,0.0001476,53.217,176.2941,84.3828,275.7333,3.7756e-06,-2.28e-06,0.0,0 STARLINK-4151,1 53034U 22076BA  23099.42208202 -.00000228  00000-0  37756-5 0  9991,2 53034  53.2170 176.2941 0001476  84.3828 275.7333 15.08832451 42762,6917.903,95.438,540.79,538.747,0.0
53034.0,STARLINK-4151,PAYLOAD,2023-04-10 08:23:12,15.08797853,0.0001317,53.2173,172.1296,113.2646,246.8485,0.00072847,0.00011311,0.0,0 STARLINK-4151,1 53034U 22076BA  23100.34944894  .00011311  00000-0  72847-3 0  9991,2 53034  53.2173 172.1296 0001317 113.2646 246.8485 15.08797853 42445,6918.009,95.44,540.785,538.963,0.0
53034.0,STARLINK-4151,PAYLOAD,2023-04-10 14:44:43,15.08847511,0.0001585,53.2165,170.9384,112.4401,247.6759,0.00011938,1.613e-05,0.0,0 STARLINK-4151,1 53034U 22076BA  23100.61438845  .00001613  00000-0  11938-3 0  9993,2 53034  53.2165 170.9384 0001585 112.4401 247.6759 15.08847511 42942,6917.857,95.437,540.819,538.626,0.0
53034.0,STARLINK-4151,PAYLOAD,2023-04-10 21:06:15,15.08847685,0.0001266,53.2167,169.7475,93.5062,266.6075,7.5216e-05,9.1e-06,0.0,0 STARLINK-4151,1 53034U 22076BA  23100.87934793  .00000910  00000-0  75216-4 0  9993,2 53034  53.2167 169.7475 0001266  93.5062 266.6075 15.08847685 42527,6917.857,95.437,540.598,538.846,0.0
53034.0,STARLINK-4151,PAYLOAD,2023-04-11 05:03:11,15.08837397,0.0001315,53.2171,168.2642,102.1254,257.9886,0.00010734,1.421e-05,0.0,0 STARLINK-4151,1 53034U 22076BA  23101.21055522  .00001421  00000-0  10734-3 0  9997,2 53034  53.2171 168.2642 0001315 102.1254 257.9886 15.08837397 43036,6917.888,95.438,540.663,538.844,0.0
53034.0,STARLINK-4151,PAYLOAD,2023-04-11 11:24:44,15.08843755,0.0001349,53.2176,167.075,104.0795,256.0348,0.00013096,1.797e-05,0.0,0 STARLINK-4151,1 53034U 22076BA  23101.47551153  .00001797  00000-0  13096-3 0  9996,2 53034  53.2176 167.0750 0001349 104.0795 256.0348 15.08843755 42617,6917.869,95.437,540.667,538.801,0.0
53034.0,STARLINK-4151,PAYLOAD,2023-04-11 20:57:03,15.08838374,0.0001304,53.2169,165.2908,101.061,259.0529,5.9256e-05,6.55e-06,0.0,0 STARLINK-4151,1 53034U 22076BA  23101.87295650  .00000655  00000-0  59256-4 0  9998,2 53034  53.2169 165.2908 0001304 101.0610 259.0529 15.08838374 42679,6917.885,95.438,540.652,538.848,0.0
53034.0,STARLINK-4151,PAYLOAD,2023-04-12 09:40:08,15.08837304,0.0001419,53.2176,162.9118,109.3158,250.7988,-2.6075e-05,-7.03e-06,0.0,0 STARLINK-4151,1 53034U 22076BA  23102.40287965 -.00000703  00000-0 -26075-4 0  9997,2 53034  53.2176 162.9118 0001419 109.3158 250.7988 15.08837304 43219,6917.889,95.438,540.735,538.772,0.0
